STARLINK-36935          
1 68032U 26040T   26083.00002315 -.00003585  00000+0 -23121-4 0  9996
2 68032  97.2852  32.1865 0001500 107.2367 123.4075 15.75245114  4822
STARLINK-36947          
1 68033U 26040U   26083.00002315 -.00064933  00000+0 -43618-3 0  9993
2 68033  97.2855  32.1762 0001469  87.6420 119.0211 15.75274077  4729
STARLINK-36939          
1 68034U 26040V   26083.00002315  .00129227  00000+0  85424-3 0  9991
2 68034  97.2848  32.1857 0002145  93.6836 129.0086 15.75188275  4722
STARLINK-36943          
1 68035U 26040W   26083.15027206  .00325390  00000+0  20815-2 0  9995
2 68035  97.2846  32.3460 0003341 136.4809 223.6721 15.75397427  4760
STARLINK-36906          
1 68036U 26040X   26083.00002315  .00051878  00000+0  34612-3 0  9992
2 68036  97.2850  32.1831 0001176 118.8517  99.8246 15.75220459  4721
STARLINK-36388          
1 68037U 26040Y   26083.00002315 -.00037112  00000+0 -24838-3 0  9999
2 68037  97.2849  32.1859 0001267 119.7252 106.9484 15.75249648  4687
STARLINK-36895          
1 68038U 26040Z   26083.00002315  .00011181  00000+0  75614-4 0  9995
2 68038  97.2858  32.1786 0001823 128.3940  86.2816 15.75226720  4725
STARLINK-36373          
1 68039U 26040AA  26083.00002315 -.00028730  00000+0 -19181-3 0  9992
2 68039  97.2856  32.1772 0001238  92.2784 118.3843 15.75260833  4689
STARLINK-36711          
1 68040U 26041A   26083.23546286  .00275881  00000+0  17374-2 0  9990
2 68040  53.1580 349.6382 0001183 154.4099 205.6980 15.75349394  3511
STARLINK-36825          
1 68041U 26041B   26083.01058258  .00192406  00000+0  95307-3 0  9998
2 68041  53.1588 350.3532 0000366  83.7682 276.3383 15.80957304  3480
STARLINK-36925          
1 68042U 26041C   26083.23579786  .00345382  00000+0  21528-2 0  9993
2 68042  53.1579 349.6401 0001149 145.0155 215.0941 15.75384276  3514
STARLINK-36902          
1 68043U 26041D   26083.13629496  .00455644  00000+0  21814-2 0  9998
2 68043  53.1584 349.7162 0000713 108.2855 251.8246 15.80980775  3507
STARLINK-36966          
1 68044U 26041E   26083.23099741 -.00062024  00000+0 -38304-3 0  9995
2 68044  53.1587 349.6088 0005200 233.0436 127.0109 15.76389083  3518
STARLINK-36864          
1 68045U 26041F   26083.04094190  .00398011  00000+0  24866-2 0  9991
2 68045  53.1593 350.5565 0001467 115.2377 244.8795 15.75180699  3489
STARLINK-36321          
1 68046U 26041G   26083.25002315 -.00083673  00000+0 -54610-3 0  9991
2 68046  53.1584 349.1981 0000938  82.9370 180.0538 15.75279559  4718
STARLINK-36181          
1 68047U 26041H   26083.19725859  .00465207  00000+0  22170-2 0  9990
2 68047  53.1584 349.3837 0000495  70.9586 289.1491 15.81054837  3518
