[{"OBJECT_NAME":"STARLINK-36935","OBJECT_ID":"2026-040T","EPOCH":"2026-03-24T00:00:02.000160","MEAN_MOTION":15.75245114,"ECCENTRICITY":0.00015,"INCLINATION":97.2852,"RA_OF_ASC_NODE":32.1865,"ARG_OF_PERICENTER":107.2367,"MEAN_ANOMALY":123.4075,"EPHEMERIS_TYPE":0,"CLASSIFICATION_TYPE":"U","NORAD_CAT_ID":68032,"ELEMENT_SET_NO":999,"REV_AT_EPOCH":482,"BSTAR":-2.3121296e-5,"MEAN_MOTION_DOT":-3.585e-5,"MEAN_MOTION_DDOT":0},{"OBJECT_NAME":"STARLINK-36947","OBJECT_ID":"2026-040U","EPOCH":"2026-03-24T00:00:02.000160","MEAN_MOTION":15.75274077,"ECCENTRICITY":0.00014692,"INCLINATION":97.2855,"RA_OF_ASC_NODE":32.1762,"ARG_OF_PERICENTER":87.642,"MEAN_ANOMALY":119.0211,"EPHEMERIS_TYPE":0,"CLASSIFICATION_TYPE":"U","NORAD_CAT_ID":68033,"ELEMENT_SET_NO":999,"REV_AT_EPOCH":472,"BSTAR":-0.00043617732,"MEAN_MOTION_DOT":-0.00064933,"MEAN_MOTION_DDOT":0},{"OBJECT_NAME":"STARLINK-36939","OBJECT_ID":"2026-040V","EPOCH":"2026-03-24T00:00:02.000160","MEAN_MOTION":15.75188275,"ECCENTRICITY":0.00021456,"INCLINATION":97.2848,"RA_OF_ASC_NODE":32.1857,"ARG_OF_PERICENTER":93.6836,"MEAN_ANOMALY":129.0086,"EPHEMERIS_TYPE":0,"CLASSIFICATION_TYPE":"U","NORAD_CAT_ID":68034,"ELEMENT_SET_NO":999,"REV_AT_EPOCH":472,"BSTAR":0.00085423729,"MEAN_MOTION_DOT":0.00129227,"MEAN_MOTION_DDOT":0},{"OBJECT_NAME":"STARLINK-36943","OBJECT_ID":"2026-040W","EPOCH":"2026-03-24T03:36:23.505984","MEAN_MOTION":15.75397427,"ECCENTRICITY":0.00033415,"INCLINATION":97.2846,"RA_OF_ASC_NODE":32.346,"ARG_OF_PERICENTER":136.4809,"MEAN_ANOMALY":223.6721,"EPHEMERIS_TYPE":0,"CLASSIFICATION_TYPE":"U","NORAD_CAT_ID":68035,"ELEMENT_SET_NO":999,"REV_AT_EPOCH":476,"BSTAR":0.0020814642,"MEAN_MOTION_DOT":0.0032539,"MEAN_MOTION_DDOT":0},{"OBJECT_NAME":"STARLINK-36906","OBJECT_ID":"2026-040X","EPOCH":"2026-03-24T00:00:02.000160","MEAN_MOTION":15.75220459,"ECCENTRICITY":0.00011763,"INCLINATION":97.285,"RA_OF_ASC_NODE":32.1831,"ARG_OF_PERICENTER":118.8517,"MEAN_ANOMALY":99.8246,"EPHEMERIS_TYPE":0,"CLASSIFICATION_TYPE":"U","NORAD_CAT_ID":68036,"ELEMENT_SET_NO":999,"REV_AT_EPOCH":472,"BSTAR":0.0003461166,"MEAN_MOTION_DOT":0.00051878,"MEAN_MOTION_DDOT":0},{"OBJECT_NAME":"STARLINK-36388","OBJECT_ID":"2026-040Y","EPOCH":"2026-03-24T00:00:02.000160","MEAN_MOTION":15.75249648,"ECCENTRICITY":0.00012679,"INCLINATION":97.2849,"RA_OF_ASC_NODE":32.1859,"ARG_OF_PERICENTER":119.7252,"MEAN_ANOMALY":106.9484,"EPHEMERIS_TYPE":0,"CLASSIFICATION_TYPE":"U","NORAD_CAT_ID":68037,"ELEMENT_SET_NO":999,"REV_AT_EPOCH":468,"BSTAR":-0.00024838494,"MEAN_MOTION_DOT":-0.00037112,"MEAN_MOTION_DDOT":0},{"OBJECT_NAME":"STARLINK-36895","OBJECT_ID":"2026-040Z","EPOCH":"2026-03-24T00:00:02.000160","MEAN_MOTION":15.7522672,"ECCENTRICITY":0.00018239,"INCLINATION":97.2858,"RA_OF_ASC_NODE":32.1786,"ARG_OF_PERICENTER":128.394,"MEAN_ANOMALY":86.2816,"EPHEMERIS_TYPE":0,"CLASSIFICATION_TYPE":"U","NORAD_CAT_ID":68038,"ELEMENT_SET_NO":999,"REV_AT_EPOCH":472,"BSTAR":7.5613821e-5,"MEAN_MOTION_DOT":0.00011181,"MEAN_MOTION_DDOT":0},{"OBJECT_NAME":"STARLINK-36373","OBJECT_ID":"2026-040AA","EPOCH":"2026-03-24T00:00:02.000160","MEAN_MOTION":15.75260833,"ECCENTRICITY":0.00012388,"INCLINATION":97.2856,"RA_OF_ASC_NODE":32.1772,"ARG_OF_PERICENTER":92.2784,"MEAN_ANOMALY":118.3843,"EPHEMERIS_TYPE":0,"CLASSIFICATION_TYPE":"U","NORAD_CAT_ID":68039,"ELEMENT_SET_NO":999,"REV_AT_EPOCH":468,"BSTAR":-0.00019180701,"MEAN_MOTION_DOT":-0.0002873,"MEAN_MOTION_DDOT":0},{"OBJECT_NAME":"STARLINK-36711","OBJECT_ID":"2026-041A","EPOCH":"2026-03-24T05:39:03.991104","MEAN_MOTION":15.75349394,"ECCENTRICITY":0.00011832,"INCLINATION":53.158,"RA_OF_ASC_NODE":349.6382,"ARG_OF_PERICENTER":154.4099,"MEAN_ANOMALY":205.698,"EPHEMERIS_TYPE":0,"CLASSIFICATION_TYPE":"U","NORAD_CAT_ID":68040,"ELEMENT_SET_NO":999,"REV_AT_EPOCH":351,"BSTAR":0.0017374155,"MEAN_MOTION_DOT":0.00275881,"MEAN_MOTION_DDOT":0},{"OBJECT_NAME":"STARLINK-36825","OBJECT_ID":"2026-041B","EPOCH":"2026-03-24T00:15:14.334912","MEAN_MOTION":15.80957304,"ECCENTRICITY":3.666e-5,"INCLINATION":53.1588,"RA_OF_ASC_NODE":350.3532,"ARG_OF_PERICENTER":83.7682,"MEAN_ANOMALY":276.3383,"EPHEMERIS_TYPE":0,"CLASSIFICATION_TYPE":"U","NORAD_CAT_ID":68041,"ELEMENT_SET_NO":999,"REV_AT_EPOCH":348,"BSTAR":0.00095306865,"MEAN_MOTION_DOT":0.00192406,"MEAN_MOTION_DDOT":0},{"OBJECT_NAME":"STARLINK-36925","OBJECT_ID":"2026-041C","EPOCH":"2026-03-24T05:39:32.935104","MEAN_MOTION":15.75384276,"ECCENTRICITY":0.00011493,"INCLINATION":53.1579,"RA_OF_ASC_NODE":349.6401,"ARG_OF_PERICENTER":145.0155,"MEAN_ANOMALY":215.0941,"EPHEMERIS_TYPE":0,"CLASSIFICATION_TYPE":"U","NORAD_CAT_ID":68042,"ELEMENT_SET_NO":999,"REV_AT_EPOCH":351,"BSTAR":0.0021528141,"MEAN_MOTION_DOT":0.00345382,"MEAN_MOTION_DDOT":0},{"OBJECT_NAME":"STARLINK-36902","OBJECT_ID":"2026-041D","EPOCH":"2026-03-24T03:16:15.884544","MEAN_MOTION":15.80980775,"ECCENTRICITY":7.137e-5,"INCLINATION":53.1584,"RA_OF_ASC_NODE":349.7162,"ARG_OF_PERICENTER":108.2855,"MEAN_ANOMALY":251.8246,"EPHEMERIS_TYPE":0,"CLASSIFICATION_TYPE":"U","NORAD_CAT_ID":68043,"ELEMENT_SET_NO":999,"REV_AT_EPOCH":350,"BSTAR":0.0021814456,"MEAN_MOTION_DOT":0.00455644,"MEAN_MOTION_DDOT":0},{"OBJECT_NAME":"STARLINK-36966","OBJECT_ID":"2026-041E","EPOCH":"2026-03-24T05:32:38.176224","MEAN_MOTION":15.76389083,"ECCENTRICITY":0.00052005,"INCLINATION":53.1587,"RA_OF_ASC_NODE":349.6088,"ARG_OF_PERICENTER":233.0436,"MEAN_ANOMALY":127.0109,"EPHEMERIS_TYPE":0,"CLASSIFICATION_TYPE":"U","NORAD_CAT_ID":68044,"ELEMENT_SET_NO":999,"REV_AT_EPOCH":351,"BSTAR":-0.00038304197,"MEAN_MOTION_DOT":-0.00062024,"MEAN_MOTION_DDOT":0},{"OBJECT_NAME":"STARLINK-36864","OBJECT_ID":"2026-041F","EPOCH":"2026-03-24T00:58:57.380160","MEAN_MOTION":15.75180699,"ECCENTRICITY":0.00014679,"INCLINATION":53.1593,"RA_OF_ASC_NODE":350.5565,"ARG_OF_PERICENTER":115.2377,"MEAN_ANOMALY":244.8795,"EPHEMERIS_TYPE":0,"CLASSIFICATION_TYPE":"U","NORAD_CAT_ID":68045,"ELEMENT_SET_NO":999,"REV_AT_EPOCH":348,"BSTAR":0.0024866142,"MEAN_MOTION_DOT":0.00398011,"MEAN_MOTION_DDOT":0},{"OBJECT_NAME":"STARLINK-36321","OBJECT_ID":"2026-041G","EPOCH":"2026-03-24T06:00:02.000160","MEAN_MOTION":15.75279559,"ECCENTRICITY":9.381e-5,"INCLINATION":53.1584,"RA_OF_ASC_NODE":349.1981,"ARG_OF_PERICENTER":82.937,"MEAN_ANOMALY":180.0538,"EPHEMERIS_TYPE":0,"CLASSIFICATION_TYPE":"U","NORAD_CAT_ID":68046,"ELEMENT_SET_NO":999,"REV_AT_EPOCH":471,"BSTAR":-0.00054610357,"MEAN_MOTION_DOT":-0.00083673,"MEAN_MOTION_DDOT":0},{"OBJECT_NAME":"STARLINK-36181","OBJECT_ID":"2026-041H","EPOCH":"2026-03-24T04:44:03.142176","MEAN_MOTION":15.81054837,"ECCENTRICITY":4.953e-5,"INCLINATION":53.1584,"RA_OF_ASC_NODE":349.3837,"ARG_OF_PERICENTER":70.9586,"MEAN_ANOMALY":289.1491,"EPHEMERIS_TYPE":0,"CLASSIFICATION_TYPE":"U","NORAD_CAT_ID":68047,"ELEMENT_SET_NO":999,"REV_AT_EPOCH":351,"BSTAR":0.0022170267,"MEAN_MOTION_DOT":0.00465207,"MEAN_MOTION_DDOT":0}]
